ONEWEB-0201             
1 48241U 21031AH  22319.67639407 -.00000178  00000+0 -51352-3 0  9991
2 48241  87.9116 190.0931 0001666  78.3088 281.8228 13.14502862 76342
ONEWEB-0207             
1 48242U 21031AJ  22319.65102413  .00000041  00000+0  77415-4 0  9998
2 48242  87.9117 190.0643 0001685  69.1756 290.9554 13.14500890 76257
ONEWEB-0208             
1 48243U 21031AK  22319.78105397  .00000289  00000+0  74383-3 0  9991
2 48243  87.9114 190.0638 0001953  86.4024 273.7329 13.14503869 76288
ONEWEB-0200             
1 48244U 21031AL  22319.66899158 -.00000198  00000+0 -56752-3 0  9995
2 48244  87.9112 190.0814 0001984  86.4558 273.6798 13.14500416 76193
ONEWEB-0217             
1 48245U 21031AM  22319.76201645 -.00000200  00000+0 -57424-3 0  9996
2 48245  87.9114 190.0335 0002019  88.9804 271.1557 13.14504781 76156
ONEWEB-0211             
1 48767U 21045A   22319.99709294  .00000125  00000+0  29776-3 0  9991
2 48767  87.8980 159.7835 0001657  98.5702 261.5616 13.15549942 73417
ONEWEB-0223             
1 48768U 21045B   22319.79003455  .00000164  00000+0  40137-3 0  9993
2 48768  87.8988 159.8353 0001639 104.6718 255.4594 13.15545581 72240
ONEWEB-0230             
1 48769U 21045C   22319.61044727  .00000038  00000+0  65909-4 0  9997
2 48769  87.8985 159.8840 0001489  89.1667 270.9634 13.15543793 72488
ONEWEB-0237             
1 48770U 21045D   22320.05624392 -.00000079  00000+0 -24371-3 0  9995
2 48770  87.9192 159.7174 0001319 111.0879 249.0392 13.15548127 73397
ONEWEB-0235             
1 48771U 21045E   22319.80059839  .00000013  00000+0  15671-5 0  9996
2 48771  87.9114 159.8192 0001334 128.3487 231.7763 13.15547564 72221
ONEWEB-0242             
1 48772U 21045F   22319.79427535  .00000118  00000+0  27832-3 0  9993
2 48772  87.9064 159.8217 0001277  93.3382 266.7894 13.15546362 72267
ONEWEB-0241             
1 48773U 21045G   22320.00975697  .00000185  00000+0  45787-3 0  9990
2 48773  87.9052 159.7456 0001894 102.7452 257.3890 13.15551399 73334
ONEWEB-0243             
1 48774U 21045H   22319.81327433 -.00000104  00000+0 -31058-3 0  9996
2 48774  87.8990 159.8119 0001170 110.0806 250.0451 13.15548998 72203
ONEWEB-0222             
1 48775U 21045J   22319.80272119  .00000027  00000+0  37054-4 0  9991
2 48775  87.9009 159.8458 0001707  99.6560 260.4764 13.15548531 72246
ONEWEB-0244             
1 48776U 21045K   22319.82511327 -.00000100  00000+0 -29576-3 0  9994
2 48776  87.9051 159.7614 0000942 100.5943 259.5294 13.16209395 72817
ONEWEB-0247             
1 48777U 21045L   22319.81961104 -.00000129  00000+0 -37708-3 0  9993
2 48777  87.9063 159.7714 0001386 118.5697 241.5573 13.15551811 72251
ONEWEB-0245             
1 48778U 21045M   22319.81539506 -.00000111  00000+0 -33004-3 0  9997
2 48778  87.9117 159.8351 0001916  95.7481 264.3868 13.15550412 72229
ONEWEB-0229             
1 48779U 21045N   22320.03722707 -.00000012  00000+0 -66740-4 0  9995
2 48779  87.9113 159.7783 0001629 102.9539 257.1773 13.15549625 73411
ONEWEB-0228             
1 48780U 21045P   22320.05200495 -.00000345  00000+0 -94929-3 0  9992
2 48780  87.9091 159.7659 0001374  92.0921 268.0367 13.15548142 73335
ONEWEB-0232             
1 48781U 21045Q   22320.04568346 -.00000067  00000+0 -21301-3 0  9999
2 48781  87.8995 159.8020 0001861  84.5000 275.6342 13.15541890 73640
ONEWEB-0231             
1 48782U 21045R   22320.48088574  .00000118  00000+0  27939-3 0  9996
2 48782  87.9090 159.6205 0001401 104.5640 255.5645 13.15546016 73417
ONEWEB-0234             
1 48783U 21045S   22320.04990627 -.00000101  00000+0 -30217-3 0  9997
2 48783  87.9062 159.7719 0002019  86.4494 273.6867 13.15548233 73486
ONEWEB-0238             
1 48784U 21045T   22320.06153545 -.00000056  00000+0 -18311-3 0  9990
2 48784  87.8998 159.7904 0001835  85.8826 274.2514 13.15547377 73380
ONEWEB-0240             
1 48785U 21045U   22320.00765217  .00000236  00000+0  59238-3 0  9991
2 48785  87.9058 159.7659 0001926 106.8348 253.2994 13.15548271 73394
ONEWEB-0246             
1 48786U 21045V   22319.62314209  .00000154  00000+0  37629-3 0  9998
2 48786  87.9053 159.8410 0001351 103.5429 256.5852 13.15548980 72094
ONEWEB-0210             
1 48787U 21045W   22320.05412270 -.00000082  00000+0 -25220-3 0  9991
2 48787  87.9058 159.7661 0000825 117.0694 243.0521 13.15548067 73323
ONEWEB-0214             
1 48788U 21045X   22319.83651993 -.00000017  00000+0 -78545-4 0  9990
2 48788  87.8992 159.8102 0000560 106.5873 253.5319 13.15550650 72139
ONEWEB-0221             
1 48789U 21045Y   22319.99496839  .00000050  00000+0  98560-4 0  9998
2 48789  87.9053 159.7864 0001515  99.1378 260.9924 13.15549488 73380
ONEWEB-0213             
1 48790U 21045Z   22320.21046614 -.00000070  00000+0 -21938-3 0  9997
2 48790  87.8999 159.7593 0001339 105.0325 255.0953 13.15547120 73469
ONEWEB-0212             
1 48791U 21045AA  22320.49569639  .00000128  00000+0  30514-3 0  9997
2 48791  87.9013 159.7309 0001710  78.1435 281.9887 13.15549012 73509
ONEWEB-0227             
1 48792U 21045AB  22320.48934634  .00000037  00000+0  65451-4 0  9996
2 48792  87.9012 159.7458 0001669  94.0061 266.1260 13.15548998 73444
ONEWEB-0226             
1 48793U 21045AC  22320.48298677  .00000099  00000+0  22841-3 0  9990
2 48793  87.8986 159.7106 0001097 119.6129 240.5111 13.15551124 73400
ONEWEB-0224             
1 48794U 21045AD  22319.61256972  .00000096  00000+0  22028-3 0  9990
2 48794  87.9049 159.8292 0002001  83.9355 276.2004 13.15550389 72092
ONEWEB-0233             
1 48795U 21045AE  22320.07072866  .00000078  00000+0  17027-3 0  9994
2 48795  87.9118 159.8028 0001851  96.2927 263.8415 13.16196333 73287
ONEWEB-0190             
1 48796U 21045AF  22320.06047010 -.00000087  00000+0 -26429-3 0  9995
2 48796  87.9008 159.7994 0001588 136.7460 223.3795 13.15550003 73364
ONEWEB-0236             
1 48797U 21045AG  22320.00131177  .00000146  00000+0  35257-3 0  9991
2 48797  87.8998 159.7805 0001511  89.2939 270.8364 13.15549218 73244
ONEWEB-0248             
1 48798U 21045AH  22320.09003807  .00000170  00000+0  41682-3 0  9995
2 48798  87.9058 159.7645 0002155 112.8554 247.2804 13.15547533 73410
ONEWEB-0225             
1 48799U 21045AJ  22320.11116926 -.00000004  00000+0 -45478-4 0  9992
2 48799  87.9007 159.7948 0001677 114.1068 246.0238 13.15549343 73446
ONEWEB-0215             
1 48800U 21045AK  22320.08158773  .00000139  00000+0  33623-3 0  9992
2 48800  87.9053 159.7577 0001971 123.1016 237.0304 13.15550534 73299
ONEWEB-0216             
1 48801U 21045AL  22320.47244869  .00000177  00000+0  43631-3 0  9990
2 48801  87.8997 159.7246 0001143  86.6535 273.4726 13.15548636 73358
ONEWEB-0239             
1 48802U 21045AM  22320.47666928  .00000104  00000+0  24155-3 0  9995
2 48802  87.9000 159.7295 0002083 118.8725 241.2614 13.15550272 73417
ONEWEB-0249             
1 48967U 21060A   22319.85248466 -.00000001  00000+0 -35075-4 0  9999
2 48967  87.9029 129.5064 0001547  88.5639 271.5669 13.16592099 68616
ONEWEB-0250             
1 48968U 21060B   22320.00870298  .00000048  00000+0  91869-4 0  9995
2 48968  87.9030 129.4805 0001744 105.1898 254.9426 13.16595330 68610
ONEWEB-0252             
1 48970U 21060D   22320.03614672 -.00000041  00000+0 -14125-3 0  9997
2 48970  87.9039 129.4587 0001438  98.6859 261.4435 13.16593275 68688
ONEWEB-0253             
1 48971U 21060E   22319.87360099 -.00000024  00000+0 -97687-4 0  9995
2 48971  87.9017 129.4991 0001477 110.3430 249.7860 13.16593344 67300
ONEWEB-0254             
1 48972U 21060F   22319.88203569 -.00000007  00000+0 -53178-4 0  9993
2 48972  87.9039 129.4769 0001526 108.8613 251.2684 13.16593009 67308
ONEWEB-0255             
1 48973U 21060G   22319.99604316  .00000126  00000+0  29602-3 0  9995
2 48973  87.9026 129.5250 0001535  94.7233 265.4073 13.16594023 68680
ONEWEB-0256             
1 48974U 21060H   22320.17336919  .00000079  00000+0  17414-3 0  9994
2 48974  87.9015 129.4321 0001194  79.4509 280.6756 13.16593685 68673
ONEWEB-0257             
1 48975U 21060J   22319.52316720 -.00000047  00000+0 -15759-3 0  9997
2 48975  87.9022 129.6081 0001267  96.0679 264.0596 13.16592075 68547
ONEWEB-0258             
1 48976U 21060K   22319.98126849  .00000005  00000+0 -19417-4 0  9998
2 48976  87.9028 129.5248 0001636  96.5826 263.5491 13.16595287 68600
ONEWEB-0259             
1 48977U 21060L   22319.97493390 -.00000003  00000+0 -40407-4 0  9998
2 48977  87.9030 129.5045 0001790 102.8738 257.2593 13.16593998 68647
ONEWEB-0260             
1 48978U 21060M   22319.89258218 -.00000029  00000+0 -11001-3 0  9993
2 48978  87.9017 129.5052 0000627  82.6289 277.4913 13.16591882 67329
ONEWEB-0261             
1 48979U 21060N   22320.01079526  .00000137  00000+0  32592-3 0  9999
2 48979  87.9023 129.4926 0001233 106.1829 253.9438 13.16596547 68697
ONEWEB-0262             
1 48980U 21060P   22319.99180798  .00000075  00000+0  16362-3 0  9998
2 48980  87.9038 129.4667 0001989 111.2631 248.8712 13.16593465 68653
ONEWEB-0263             
1 48981U 21060Q   22320.17547376  .00000072  00000+0  15521-3 0  9993
2 48981  87.9044 129.4328 0001658 117.5443 242.5856 13.16594358 68649
ONEWEB-0264             
1 48982U 21060R   22319.98439421  .00000014  00000+0  38774-5 0  9995
2 48982  87.9054 129.4419 0001512  96.5710 263.5593 13.16596479 68618
ONEWEB-0266             
1 48984U 21060T   22320.00659310  .00000111  00000+0  25724-3 0  9990
2 48984  87.9037 129.4740 0001661  90.0043 270.1278 13.16594271 68613
ONEWEB-0267             
1 48985U 21060U   22320.16913720  .00000070  00000+0  14917-3 0  9992
2 48985  87.9039 129.4391 0001189 113.1768 246.9489 13.16593180 68639
ONEWEB-0268             
1 48986U 21060V   22319.83349459  .00000358  00000+0  90172-3 0  9993
2 48986  87.9037 129.5107 0001524  90.1892 269.9414 13.16595276 67561
